CSS (TIANHE)            
1 48274U 21035A   24147.24094088  .00045180  00000+0  43870-3 0  9991
2 48274  41.4667 216.9988 0002360  74.5451 285.5650 15.65509671175666
